CYGNUS NG-23            
1 65616U 25208A   26013.40249039  .00009179  00000+0  17283-3 0  9993
2 65616  51.6332 345.7221 0007762  13.3130 346.8062 15.49273572   221
DRAGONFLY               
1 65729U 98067XH  26013.26090516  .00362063  00000+0  12320-2 0  9999
2 65729  51.6217 332.7016 0008104 101.8140 258.3775 15.88290760 18140
1998-067XK              
1 65731U 98067XK  26013.12953435  .00109037  00000+0  76195-3 0  9996
2 65731  51.6285 337.1409 0004914  72.1641 287.9894 15.73432001 18076
RSP-03                  
1 65732U 98067XL  26013.11400561  .00176230  00000+0  93053-3 0  9994
2 65732  51.6260 335.5089 0005970  81.6480 278.5198 15.79550150 18104
GHS-01                  
1 65733U 98067XM  26013.28810766  .00822248  32923-3  15177-2 0  9995
2 65733  51.6224 330.6229 0007910 115.8495 244.3332 16.00559638 18183
YOTSUBA-KULOVER         
1 65941U 98067XN  26013.32027331  .00079599  00000+0  80253-3 0  9997
2 65941  51.6291 340.6757 0004023  98.6677 261.4774 15.64667821 14793
BOTAN                   
1 65942U 98067XP  26013.60915885  .00117370  00000+0  88977-3 0  9990
2 65942  51.6262 337.3441 0004816  97.0128 263.1418 15.71481007 14869
E-KAGAKU-1              
1 65943U 98067XQ  26013.12856159  .00065315  00000+0  66193-3 0  9993
2 65943  51.6312 341.6522 0002668  95.8815 264.2485 15.64624113 14760
HRC MONOBLOCK CAMERA    
1 66052U 98067XR  26013.32776887  .00033511  00000+0  46734-3 0  9998
2 66052  51.6305 343.7264 0001121 356.2255   3.8728 15.56581518 13752
HTV-X1                  
1 66174U 25241A   26013.40249039  .00009179  00000+0  17283-3 0  9990
2 66174  51.6332 345.7221 0007762  13.3130 346.8062 15.49273572   513
SZ-21 MODULE            
1 66515U 25246C   26013.54259729  .00022293  00000+0  22837-3 0  9999
2 66515  41.4739 181.7676 0001825 159.9707 200.1205 15.64439087  9425
SHENZHOU-22             
1 66645U 25272A   26013.53537563  .00013458  00000+0  16214-3 0  9991
2 66645  41.4652 183.4811 0011481 277.6213  82.3322 15.60479529267643
